"country_code","country_name","admin1_code","admin1_name","admin1_area","admin1_lat","admin1_lon"
"BDI","Burundi","BDI001","Bubanza",0.0856047260887629,-3.12452995,29.39952292
"BDI","Burundi","BDI002","Bujumbura Rural",0.071735791293417,-3.43402882,29.44846954
"BDI","Burundi","BDI003","Bururi",0.130145861520819,-3.86741572,29.67951077
"BDI","Burundi","BDI004","Cankuzo",0.153650185522835,-3.1418809,30.60396244
"BDI","Burundi","BDI005","Cibitoke",0.127163474722719,-2.81838058,29.22918764
"BDI","Burundi","BDI006","Gitega",0.154477192832116,-3.49227118,29.92222866
"BDI","Burundi","BDI007","Karuzi",0.11478817670982,-3.13737326,30.12023246
"BDI","Burundi","BDI008","Kayanza",0.0961126663370181,-3.00704254,29.65892475
"BDI","Burundi","BDI009","Kirundo",0.144535290957395,-2.54330069,30.15750685
"BDI","Burundi","BDI010","Makamba",0.15381564020173,-4.21883412,29.82035325
"BDI","Burundi","BDI011","Muramvya",0.0541582052349737,-3.27135954,29.65195205
"BDI","Burundi","BDI012","Muyinga",0.145818505978447,-2.77627483,30.34732423
"BDI","Burundi","BDI013","Mwaro",0.066803545935767,-3.49055114,29.71529941
"BDI","Burundi","BDI014","Ngozi",0.114713144327133,-2.87463596,29.92458685
"BDI","Burundi","BDI015","Rutana",0.150465995203507,-3.8750282,30.09493235
"BDI","Burundi","BDI016","Ruyigi",0.183051082407704,-3.45799516,30.32274912
"BDI","Burundi","BDI017","Bujumbura Mairie",0.00978889199091627,-3.37515901,29.36469075
"BDI","Burundi","BDI018","Rumonge",0.0856705685840053,-3.82234656,29.45864996
"CF","Central African Republic","CAF12","Lobaye",1.50838437818532,4.1726963,17.61792114
"CF","Central African Republic","CAF23","Sangha-Mbaere",1.51307553370259,3.46119761,16.2919254
"CF","Central African Republic","CAF21","Mambere-Kadei",2.40193177368139,4.56822908,15.91638061
"CF","Central African Republic","CAF22","Nana-Mambere",2.22046186351861,5.69864358,15.37949267
"CF","Central African Republic","CAF32","Ouham",4.3183356726216,6.91401546,17.89122282
"CF","Central African Republic","CAF41","Kemo",1.34773962237938,5.79776781,19.29802868
"CF","Central African Republic","CAF42","Nana-Gribizi",1.6102473621926,7.1904858,19.33065599
"CF","Central African Republic","CAF31","Ouham Pende",2.59492230553919,6.72816478,16.14038214
"CF","Central African Republic","CAF53","Vakaga",3.85235215529265,9.82358744,22.51443025
"CF","Central African Republic","CAF51","Bamingui-Bangoran",4.80020802692864,8.42156365,20.57411574
"CF","Central African Republic","CAF52","Haute-Kotto",7.04995154800597,7.46942607,22.92300207
"CF","Central African Republic","CAF63","Upper Mbomou",4.60575199655993,6.30826655,25.5883885
"CF","Central African Republic","CAF62","Mbomou",4.916069874896,5.5005745,23.38950292
"CF","Central African Republic","CAF11","Ombella MPoko",2.60200009115496,5.11643427,17.99561853
"CF","Central African Republic","CAF43","Ouaka",4.01411505560296,6.12733934,20.749182
"CF","Central African Republic","CAF61","Basse-Kotto",1.37759645744548,4.89283939,21.36067314
"CF","Central African Republic","CAF71","Bangui",0.0053815569559183,4.38131473,18.56593228
"DJ","Djibouti","DJ02","Dikhil",0.534369973442705,11.35581612,42.12115116
"DJ","Djibouti","DJ04","Obock",0.361781143188406,12.28458863,43.08711287
"DJ","Djibouti","DJ05","Tadjourah",0.540064000421519,12.00258242,42.5419109
"DJ","Djibouti","DJ03","Djibouti",0.0155658944865638,11.55933152,43.05271121
"DJ","Djibouti","DJ01","Ali Sabieh",0.170774173590965,11.22550264,42.91467327
"DJ","Djibouti","DJ06","Arta",0.174556843127998,11.43459737,42.68558792
"CD","Democratic Republic of the Congo","COD52","Lower Uele",12.0979640038516,3.62643911,25.14441844
"CD","Democratic Republic of the Congo","COD41","EquatorÂ ",8.32423066781031,0.22912328,18.9209992
"CD","Democratic Republic of the Congo","COD71","Upper Katanga",10.3167740321303,-10.44989073,27.83748877
"CD","Democratic Republic of the Congo","COD73","Upper Lomami",8.9462939571254,-8.23682087,25.43020333
"CD","Democratic Republic of the Congo","COD53","Upper Uele",7.43334037523037,3.34608085,28.59166
"CD","Democratic Republic of the Congo","COD54","Ituri",5.28059770266383,1.75223987,29.49688567
"CD","Democratic Republic of the Congo","COD92","Kasai",7.88783014258599,-4.95016471,21.10494625
"CD","Democratic Republic of the Congo","COD91","Central Kasai",4.66206800848937,-6.22642867,22.48914838
"CD","Democratic Republic of the Congo","COD82","Eastern Kasai",0.833754989948241,-6.15197121,23.51942259
"CD","Democratic Republic of the Congo","COD10","Kinshasa",0.864891272974033,-4.43976942,15.91130005
"CD","Democratic Republic of the Congo","COD20","Central Kongo",4.41194395510729,-5.28972193,14.31445459
"CD","Democratic Republic of the Congo","COD31","Kwango",7.35297717129813,-6.43462943,17.86589373
"CD","Democratic Republic of the Congo","COD32","Kwilu",6.45536321890739,-4.78252032,18.65494284
"CD","Democratic Republic of the Congo","COD81","Lomami",4.42276101187829,-6.21800502,24.67891253
"CD","Democratic Republic of the Congo","COD72","Lualaba",10.0335756277193,-9.83930743,23.89425096
"CD","Democratic Republic of the Congo","COD33","Mai-Ndombe",10.4690612662592,-2.69279084,18.52950292
"CD","Democratic Republic of the Congo","COD63","Maniema",10.3836264095787,-3.0852104,26.42330721
"CD","Democratic Republic of the Congo","COD44","Mongala",4.56659407869897,2.09660793,21.51345629
"CD","Democratic Republic of the Congo","COD61","North Kivu",4.79266614630593,-0.60720248,28.70643788
"CD","Democratic Republic of the Congo","COD43","North Ubangi",4.41310685779141,3.86766919,21.06752068
"CD","Democratic Republic of the Congo","COD83","Sankuru",8.81079535186725,-3.48232792,23.60499196
"CD","Democratic Republic of the Congo","COD62","South Kivu",5.22401501838481,-3.21955189,28.25880189
"CD","Democratic Republic of the Congo","COD42","South Ubangi",4.23427907403556,3.09083614,19.35466783
"CD","Democratic Republic of the Congo","COD74","Tanganyika",10.846465986985,-6.57009633,28.20255604
"CD","Democratic Republic of the Congo","COD51","Tshopo",16.2902664938958,0.48121837,25.20721072
"CD","Democratic Republic of the Congo","COD45","Tshuapa",10.7499783926307,-0.66966746,21.76391369
"ER","Eritrea","ER1","Debubawi Keih Bahri",1.77713680419808,13.62136353,41.72190144
"ER","Eritrea","ER2","Maekel",0.0875616151671247,15.35280357,38.8804487
"ER","Eritrea","ER3","Semienawi Keih Bahri",2.93661557905433,16.16588285,39.06404055
"ER","Eritrea","ER4","Anseba",1.78655222806107,16.40882345,37.77828235
"ER","Eritrea","ER5","Gash Barka",2.81660216316989,15.18944851,37.41979583
"ER","Eritrea","ER6","Debub",0.78759176483825,14.82430711,38.94101734
"ET","Ethiopia","ET14","Addis Ababa",0.0443693484668877,8.980483,38.78553835
"ET","Ethiopia","ET02","Afar",7.89068240057306,12.03610025,40.77448146
"ET","Ethiopia","ET03","Amhara",12.9014534974423,11.56495272,38.04353749
"ET","Ethiopia","ET06","Benishangul Gumuz",4.14930482454232,10.50292407,35.44030741
"ET","Ethiopia","ET15","Dire Dawa",0.0867574693324389,9.60626921,42.00302689
"ET","Ethiopia","ET12","Gambela",2.56091027869765,7.68382482,34.33676949
"ET","Ethiopia","ET13","Harari",0.0305118364203925,9.28966003,42.17252587
"ET","Ethiopia","ET04","Oromia",26.5511122402124,7.5080554,38.76512402
"ET","Ethiopia","ET07","SNNP",8.92852803148744,6.46546929,36.8063606
"ET","Ethiopia","ET05","Somali",25.4434455699276,6.92574848,43.32997229
"ET","Ethiopia","ET01","Tigray",4.39912097632076,13.77711621,38.43867504
"KE","Kenya","KEN01","Mombasa",0.0233198370194163,-4.02118441,39.65065227
"KE","Kenya","KEN02","Kwale",0.67229061985262,-4.1415269,39.15260065
"KE","Kenya","KEN03","Kilifi",1.02539970377995,-3.17533828,39.68667526
"KE","Kenya","KEN04","Tana River",3.18416872695623,-1.52636322,39.41786531
"KE","Kenya","KEN05","Lamu",0.493911908470102,-2.04751505,40.75809285
"KE","Kenya","KEN06","Taita Taveta",1.39384448560109,-3.434734,38.418602
"KE","Kenya","KEN07","Garissa",3.54144839323591,-0.48882109,40.19921911
"KE","Kenya","KEN08","Wajir",4.60637616901192,1.80813762,40.03498564
"KE","Kenya","KEN09","Mandera",2.11434317736312,3.43646949,40.73881017
"KE","Kenya","KEN10","Marsabit",6.18504570658223,2.97865879,37.5695361
"KE","Kenya","KEN11","Isiolo",2.06363612303848,1.01044307,38.54215312
"KE","Kenya","KEN12","Meru",0.568018718312543,0.16677924,37.76403705
"KE","Kenya","KEN13","Tharaka-Nithi",0.209620912191496,-0.20706122,37.87029729
"KE","Kenya","KEN14","Embu",0.229343555924388,-0.60397438,37.62650132
"KE","Kenya","KEN15","Kitui",2.47528137397351,-1.49103854,38.40692102
"KE","Kenya","KEN16","Machakos",0.490984751560261,-1.27951231,37.41267603
"KE","Kenya","KEN17","Makueni",0.664595941971067,-2.1576841,37.78824557
"KE","Kenya","KEN18","Nyandarua",0.265418488945451,-0.32207781,36.48286916
"KE","Kenya","KEN19","Nyeri",0.270905688252673,-0.3429236,36.95647813
"KE","Kenya","KEN20","Kirinyaga",0.119841727070333,-0.52474629,37.31986811
"KE","Kenya","KEN21","Murang'a",0.205113924561143,-0.80959054,37.03272252
"KE","Kenya","KEN22","Kiambu",0.206555253366759,-1.06870607,36.82356426
"KE","Kenya","KEN23","Turkana",5.70813651188059,3.42484919,35.43575846
"KE","Kenya","KEN24","West Pokot",0.754592815753574,1.74010617,35.24384681
"KE","Kenya","KEN25","Samburu",1.70767236004677,1.31685463,37.11839407
"KE","Kenya","KEN26","Trans Nzoia",0.20192637639347,1.05095481,34.95741997
"KE","Kenya","KEN27","Uasin Gishu",0.275892774006539,0.52608589,35.32201166
"KE","Kenya","KEN28","Elgeyo-Marakwet",0.245759083556698,0.80221881,35.53656314
"KE","Kenya","KEN29","Nandi",0.230224131882878,0.18668889,35.11048767
"KE","Kenya","KEN30","Baringo",0.884498534818652,0.66925197,35.94646535
"KE","Kenya","KEN31","Laikipia",0.774716120295415,0.32360413,36.77172785
"KE","Kenya","KEN32","Nakuru",0.607260821578831,-0.46367544,36.0784791
"KE","Kenya","KEN33","Narok",1.4535483701148,-1.25479034,35.57632921
"KE","Kenya","KEN34","Kajiado",1.77911948719632,-2.12138359,36.9088422
"KE","Kenya","KEN35","Kericho",0.209648281226504,-0.29573291,35.31407002
"KE","Kenya","KEN36","Bomet",0.192379142709552,-0.72629459,35.29859759
"KE","Kenya","KEN37","Kakamega",0.244456480298428,0.40368346,34.74451115
"KE","Kenya","KEN38","Vihiga",0.0454911068991342,0.07626579,34.72232303
"KE","Kenya","KEN39","Bungoma",0.245044326076204,0.74928524,34.64046087
"KE","Kenya","KEN40","Busia",0.14764190482833,0.38744367,34.19363148
"KE","Kenya","KEN41","Siaya",0.285837041274305,-0.06212991,34.24764171
"KE","Kenya","KEN42","Kisumu",0.216321714487552,-0.1694587,34.83520347
"KE","Kenya","KEN43","Homa Bay",0.384327237582677,-0.5428094,34.35899688
"KE","Kenya","KEN44","Migori",0.255004517891501,-0.98953684,34.36334529
"KE","Kenya","KEN45","Kisii",0.106434382012138,-0.77460376,34.77472298
"KE","Kenya","KEN46","Nyamira",0.0728233375000033,-0.64273241,34.96465956
"KE","Kenya","KEN47","Nairobi",0.0574241999755219,-1.29341347,36.86818927
"RW","Rwanda","RW5","Eastern",0.769404795178033,-1.84782823,30.45974464
"RW","Rwanda","RW1","Kigali City",0.0592366122548105,-1.93663772,30.12195521
"RW","Rwanda","RW4","Northern",0.265962733871415,-1.60808301,29.88260477
"RW","Rwanda","RW2","Southern",0.485225239477795,-2.36879194,29.68700025
"RW","Rwanda","RW3","Western",0.396038035982489,-2.11186301,29.33214182
"SA","Kingdom of Saudi Arabia","SAU06","`Asir",6.63970893724378,19.27075476,42.99448875
"SA","Kingdom of Saudi Arabia","SAU12","Al Bahah",0.891075624722377,20.10592007,41.41501575
"SA","Kingdom of Saudi Arabia","SAU05","Ash Sharqiyah",49.0148756223945,22.92352133,50.14611421
"SA","Kingdom of Saudi Arabia","SAU08","Ha'il",11.0587576476272,27.34901812,41.60781457
"SA","Kingdom of Saudi Arabia","SAU13","Al Jawf",10.9060755751049,29.67430979,38.74655712
"SA","Kingdom of Saudi Arabia","SAU10","Jizan",1.33255576719063,17.35603355,42.60762837
"SA","Kingdom of Saudi Arabia","SAU03","Al Madinah",12.8948751975789,24.88863144,39.51599587
"SA","Kingdom of Saudi Arabia","SAU02","Makkah",12.051850448263,21.62651312,41.20586401
"SA","Kingdom of Saudi Arabia","SAU11","Najran",7.5455625027201,18.28394517,45.82621928
"SA","Kingdom of Saudi Arabia","SAU09","Al Hudud ash Shamaliyah",11.739461133251,29.95098716,42.06434837
"SA","Kingdom of Saudi Arabia","SAU04","Al Qassim",4.9062932786249,25.94616273,43.21932925
"SA","Kingdom of Saudi Arabia","SAU01","Ar Riyad",33.3014297959662,23.06852784,45.55003868
"SA","Kingdom of Saudi Arabia","SAU07","Tabuk",9.07201698240185,27.38236065,37.29290303
"SD","Sudan","SD01","Khartoum",1.7905934140418,15.85117986,32.84274191
"SD","Sudan","SD16","River Nile",11.0957173825751,18.34098846,33.45778611
"SD","Sudan","SD17","Northern",31.3775357964422,19.56059372,29.32854315
"SD","Sudan","SD13","North Kordofan",15.7496059009744,14.83836263,29.74959723
"SD","Sudan","SD18","West Kordofan",8.61525813875019,11.95615161,28.41352418
"SD","Sudan","SD15","Al Gezira",2.28524010155315,14.59422123,33.27651792
"SD","Sudan","SD14","Sennar",3.27820642399923,12.908059,34.04652688
"SD","Sudan","SD09","White Nile",3.16254449794781,13.3620322,32.31817323
"SD","Sudan","SD11","Kassala",4.32206934049084,15.8179498,35.80964922
"SD","Sudan","SD10","Red Sea",18.5663637425932,19.83811806,35.70233434
"SD","Sudan","SD12","Gedaref",4.80094172845384,14.11499262,35.11359174
"SD","Sudan","SD07","South Kordofan",6.45708908319291,11.29134687,30.83617271
"SD","Sudan","SD08","Blue Nile",3.16020388073022,11.29976771,34.12767344
"SD","Sudan","SD06","Central Darfur",2.7451297533249,12.32558051,23.35891221
"SD","Sudan","SD04","Western Darfur",1.85900025264321,13.51923302,22.61675757
"SD","Sudan","SD02","North Darfur",26.7359719019127,16.22147219,25.55137076
"SD","Sudan","SD05","Eastern Darfur",4.42919126594121,10.97709393,26.46233396
"SD","Sudan","SD03","South Darfur",6.9045010860979,10.99444581,24.44488466
"SO","Somalia","SOM11","Awdal",1.31566834459723,10.57700425,43.37704977
"SO","Somalia","SOM12","Woqooyi Galbeed",2.3277908154596,9.87862624,44.55625422
"SO","Somalia","SOM13","Togdheer",2.80914679562272,9.10933746,45.72612698
"SO","Somalia","SOM14","Sool",3.06845458953699,8.96342495,47.56521712
"SO","Somalia","SOM15","Sanaag",4.44370111163345,10.30477547,47.68285206
"SO","Somalia","SOM16","Bari",5.62233169287664,10.21953145,50.04982542
"SO","Somalia","SOM17","Nugaal",2.26248968661953,8.10838538,48.91388848
"SO","Somalia","SOM18","Mudug",4.79556998033305,6.37604714,48.15455965
"SO","Somalia","SOM19","Galgaduud",3.99752472130443,5.10182642,46.77976491
"SO","Somalia","SOM20","Hiraan",2.77396202953416,4.21494253,45.47282179
"SO","Somalia","SOM21","Shabelle Dhexe",1.5187628862005,3.02763849,46.01407234
"SO","Somalia","SOM22","Banadir",0.0192252876450912,2.10778015,45.4266619
"SO","Somalia","SOM23","Shabelle Hoose",2.09544508583019,1.90353672,44.32744857
"SO","Somalia","SOM24","Bay",3.5732079329512,2.65462002,43.56737452
"SO","Somalia","SOM25","Bakool",2.10375670025588,4.20998575,43.9522378
"SO","Somalia","SOM26","Gedo",3.67988062396607,2.89720691,41.9793516
"SO","Somalia","SOM27","Juba Dhexe",1.52644109489935,1.22798731,42.53841865
"SO","Somalia","SOM28","Juba Hoose",3.8838008548196,0.09319984,41.80272002
"SS","South Sudan","SS01","Central Equatoria",3.51214633767944,4.76547443,31.1948528
"SS","South Sudan","SS02","Eastern Equatoria",5.95474516106511,4.90379504,33.59441436
"SS","South Sudan","SS03","Jonglei",9.98673951905404,7.38622681,32.33411214
"SS","South Sudan","SS04","Lakes",3.53161320695605,6.63458409,29.93664919
"SS","South Sudan","SS05","Northern Bahr el Ghazal",2.53606985479826,8.87629906,27.03567079
"SS","South Sudan","SS06","Unity",3.04694943929257,8.92606406,29.88855683
"SS","South Sudan","SS07","Upper Nile",6.36787776943343,9.90309289,32.79932151
"SS","South Sudan","SS08","Warrap",2.94198122671913,8.1376601,28.72675248
"SS","South Sudan","SS09","Western Bahr el Ghazal",7.49110213084589,8.22476438,26.21592242
"SS","South Sudan","SS10","Western Equatoria",6.44069790738136,5.54820209,28.67861576
"TZ","United Republic of Tanzania","TZA01","Dodoma",3.42531066614139,-5.92616279,35.92210878
"TZ","United Republic of Tanzania","TZA02","Arusha",2.95778680412638,-2.95874911,35.94058334
"TZ","United Republic of Tanzania","TZA03","Kilimanjaro",1.05889190866352,-3.76201699,37.6423296
"TZ","United Republic of Tanzania","TZA04","Tanga",2.27527074326481,-5.21692448,38.27603788
"TZ","United Republic of Tanzania","TZA05","Morogoro",5.75222807896772,-7.9207176,36.98832656
"TZ","United Republic of Tanzania","TZA06","Pwani",2.61381082619873,-7.25281715,38.64915864
"TZ","United Republic of Tanzania","TZA07","Dar es Salaam",0.133450576000073,-6.88477386,39.26161145
"TZ","United Republic of Tanzania","TZA08","Lindi",5.33917087070101,-9.4813871,38.40203769
"TZ","United Republic of Tanzania","TZA09","Mtwara",1.47351767523787,-10.77596579,39.11298561
"TZ","United Republic of Tanzania","TZA10","Ruvuma",5.34657614965675,-10.7342504,36.20205824
"TZ","United Republic of Tanzania","TZA11","Iringa",2.99110172061809,-7.8012747,35.47521021
"TZ","United Republic of Tanzania","TZA12","Mbeya",3.11163815413989,-8.15856788,33.75686332
"TZ","United Republic of Tanzania","TZA13","Singida",3.96193666329432,-5.74658285,34.4955233
"TZ","United Republic of Tanzania","TZA14","Tabora",6.15947367801488,-5.26382844,32.81941877
"TZ","United Republic of Tanzania","TZA15","Rukwa",2.1196632443232,-7.94791036,31.30241929
"TZ","United Republic of Tanzania","TZA16","Kigoma",3.60328239147719,-4.78261079,30.40968712
"TZ","United Republic of Tanzania","TZA17","Shinyanga",1.33706397700076,-3.75194512,32.93608405
"TZ","United Republic of Tanzania","TZA18","Kagera",2.15906577423109,-2.02783725,31.18361951
"TZ","United Republic of Tanzania","TZA19","Mwanza",0.942009665160656,-2.76729401,33.00514408
"TZ","United Republic of Tanzania","TZA20","Mara",1.71416064591033,-1.8527759,34.3952574
"TZ","United Republic of Tanzania","TZA21","Manyara",3.77684009906442,-4.53312277,36.5517359
"TZ","United Republic of Tanzania","TZA22","Njombe",1.92960597376314,-9.49810687,34.67722344
"TZ","United Republic of Tanzania","TZA23","Katavi",4.07992102735642,-6.43236289,31.31430799
"TZ","United Republic of Tanzania","TZA24","Simiyu",1.96635922524211,-3.04108119,34.29319176
"TZ","United Republic of Tanzania","TZA25","Geita",1.60510419837689,-3.29887584,31.89865524
"TZ","United Republic of Tanzania","TZA51","Kaskazini Unguja",0.0378956716414004,-5.91889672,39.28795678
"TZ","United Republic of Tanzania","TZA52","Kusini Unguja",0.0723334693352323,-6.23876845,39.42321205
"TZ","United Republic of Tanzania","TZA53","Mjini Magharibi",0.019054357686081,-6.16759675,39.24860874
"TZ","United Republic of Tanzania","TZA54","Kaskazini Pemba",0.0429021814102443,-5.04316434,39.77098317
"TZ","United Republic of Tanzania","TZA55","Kusini Pemba",0.0387767352455655,-5.32023459,39.73619942
"TZ","United Republic of Tanzania","TZA26","Songwe",1.89908094487849,-8.33497043,32.7112231
"UG","Uganda","UG101","Kalangala",0.629717808738797,-0.57627067,32.37868449
"UG","Uganda","UG102","Kampala",0.0158669862559106,0.31848432,32.59623147
"UG","Uganda","UG103","Kiboga",0.127108277438469,0.84157904,31.95634071
"UG","Uganda","UG104","Luwero",0.180192337250444,0.83174874,32.58252529
"UG","Uganda","UG105","Masaka",0.178605605936693,-0.48856986,31.85487104
"UG","Uganda","UG106","Mpigi",0.123913559449518,0.06978216,32.15825144
"UG","Uganda","UG107","Mubende",0.37490629593142,0.52151062,31.53282346
"UG","Uganda","UG108","Mukono",0.331940511644928,0.00702304,32.78549841
"UG","Uganda","UG109","Nakasongola",0.285348823208842,1.35478495,32.42489014
"UG","Uganda","UG110","Rakai",0.252003391712621,-0.79789232,31.4839338
"UG","Uganda","UG111","Ssembabule",0.190151697116775,-0.02372693,31.33918316
"UG","Uganda","UG112","Kayunga",0.138552609857489,0.97578138,32.89075999
"UG","Uganda","UG113","Wakiso",0.228213148992602,0.22313519,32.44530718
"UG","Uganda","UG114","Lyantonde",0.0703575831655023,-0.22042267,31.18737578
"UG","Uganda","UG115","Mityana",0.129873309217174,0.44508032,32.05752748
"UG","Uganda","UG116","Nakaseke",0.282566268814906,1.05154228,32.16853176
"UG","Uganda","UG117","Buikwe",0.118068571509665,0.30851741,33.03966065
"UG","Uganda","UG118","Bukomansimbi",0.0487347079521219,-0.12698818,31.62754843
"UG","Uganda","UG119","Butambala",0.0329536884737527,0.15643322,32.07399389
"UG","Uganda","UG120","Buvuma",0.781773554435959,-0.38909172,33.20813884
"UG","Uganda","UG121","Gomba",0.135719154917266,0.19841794,31.70192402
"UG","Uganda","UG122","Kalungu",0.0680193580699969,-0.09936614,31.80195051
"UG","Uganda","UG123","Kyankwanzi",0.201003388587107,1.1240217,31.6419275
"UG","Uganda","UG124","Lwengo",0.0832303191985583,-0.41066942,31.42516002
"UG","Uganda","UG125","Kyotara",0.0762700713552662,-0.6527505,31.6355333
"UG","Uganda","UG201","Bugiri",0.0855918502524227,0.53356045,33.77326412
"UG","Uganda","UG202","Busia",0.0620590532695405,0.41453684,34.00465251
"UG","Uganda","UG203","Iganga",0.0826133382924484,0.69272414,33.52531237
"UG","Uganda","UG204","Jinja",0.0588455193294695,0.56830652,33.21194216
"UG","Uganda","UG205","Kamuli",0.126385536015349,0.9430585,33.10315115
"UG","Uganda","UG225","Kapchorwa",0.0290506528289067,1.35146745,34.42315862
"UG","Uganda","UG207","Katakwi",0.197442389403216,1.92499975,34.03740227
"UG","Uganda","UG208","Kumi",0.0873374741469406,1.47642554,33.9606832
"UG","Uganda","UG209","Mbale",0.0421558121523996,1.02198881,34.19758056
"UG","Uganda","UG210","Pallisa",0.062803947657462,1.23396777,33.65937638
"UG","Uganda","UG211","Soroti",0.114766282851913,1.77456272,33.59026362
"UG","Uganda","UG212","Tororo",0.0970333239668883,0.7279512,34.08134028
"UG","Uganda","UG213","Kaberamaido",0.132063960983878,1.76111281,33.22206317
"UG","Uganda","UG214","Mayuge",0.274734769847019,-0.08581316,33.55096753
"UG","Uganda","UG215","Sironko",0.0329659829964134,1.17452346,34.31745551
"UG","Uganda","UG216","Amuria",0.210390914532214,2.10667792,33.68635738
"UG","Uganda","UG217","Budaka",0.0333497903856597,1.06269548,33.98795883
"UG","Uganda","UG218","Bududa",0.0258945377738118,1.03464234,34.40672826
"UG","Uganda","UG219","Bukedea",0.0852982566254351,1.36521286,34.123524
"UG","Uganda","UG220","Bukwo",0.0453363439096384,1.28120653,34.68567736
"UG","Uganda","UG221","Butaleja",0.0532607708302516,0.88581169,33.93247717
"UG","Uganda","UG222","Kaliro",0.0706787216895613,1.07043221,33.48260018
"UG","Uganda","UG223","Manafwa",0.017154717750997,0.88631725,34.26824259
"UG","Uganda","UG224","Namutumba",0.0661658614912221,0.87151408,33.6809082
"UG","Uganda","UG225","Bulambuli",0.0564286747306586,1.36700118,34.35908908
"UG","Uganda","UG226","Buyende",0.152839925764255,1.26441733,33.14091676
"UG","Uganda","UG227","Kibuku",0.0398334678344353,1.0566309,33.80055662
"UG","Uganda","UG228","Kween",0.066345385261978,1.43460962,34.56748574
"UG","Uganda","UG229","Luuka",0.0527809444203883,0.80676033,33.33774082
"UG","Uganda","UG230","Namayingo",0.379193368166608,-0.31480532,33.80379575
"UG","Uganda","UG231","Ngora",0.058635978993246,1.49919536,33.75367035
"UG","Uganda","UG232","Serere",0.159735765362121,1.49119932,33.37203125
"UG","Uganda","UG233","Butebo",0.0262410910667161,1.19916762,33.93772405
"UG","Uganda","UG234","Namisindwa",0.0262434587399931,0.87395473,34.36556258
"UG","Uganda","UG301","Adjumani",0.253316819152472,3.22641272,31.76890256
"UG","Uganda","UG302","Apac",0.26249560690268,1.89031977,32.56213137
"UG","Uganda","UG303","Arua",0.353452854390459,2.95673136,31.13589823
"UG","Uganda","UG304","Gulu",0.15755309462045,2.98688151,32.39169579
"UG","Uganda","UG305","Kitgum",0.338045380651073,3.40166733,33.25757143
"UG","Uganda","UG306","Kotido",0.29540468047176,3.02712188,33.98730408
"UG","Uganda","UG307","Lira",0.109030100571278,2.30539224,32.96115983
"UG","Uganda","UG308","Moroto",0.288408982159278,2.65144204,34.63082443
"UG","Uganda","UG309","Moyo",0.139429379448928,3.54018235,31.68807828
"UG","Uganda","UG310","Nebbi",0.0813027187674781,2.43331391,31.17928289
"UG","Uganda","UG311","Nakapiripirit",0.339977816010528,1.88850608,34.56214066
"UG","Uganda","UG312","Pader",0.267823807363037,2.93235295,32.86631448
"UG","Uganda","UG313","Yumbe",0.203147363675604,3.52079849,31.30262825
"UG","Uganda","UG314","Abim",0.223852198729774,2.7059684,33.75232842
"UG","Uganda","UG315","Amolatar",0.142736464713532,1.62221992,32.7384915
"UG","Uganda","UG316","Amuru",0.287762009319154,3.04987847,31.96769159
"UG","Uganda","UG317","Dokolo",0.0886092213870973,1.94027195,33.07364664
"UG","Uganda","UG318","Kaabong",0.593215587505092,3.61081536,34.02700657
"UG","Uganda","UG319","Koboko",0.0619781547061098,3.52794692,31.00681815
"UG","Uganda","UG320","Maracha",0.0361189172760897,3.23929923,30.92581723
"UG","Uganda","UG321","Oyam",0.182999730705017,2.37524085,32.4834828
"UG","Uganda","UG322","Agago",0.286893919717509,2.91350547,33.34499442
"UG","Uganda","UG323","Alebtong",0.126509693637147,2.26925965,33.25425645
"UG","Uganda","UG324","Amudat",0.135368178011138,1.80727393,34.87820083
"UG","Uganda","UG325","Kole",0.0862656863212003,2.29588371,32.76403328
"UG","Uganda","UG326","Lamwo",0.443360703824636,3.55361446,32.72321311
"UG","Uganda","UG327","Napak",0.363928251580964,2.39524333,34.26291395
"UG","Uganda","UG328","Nwoya",0.383104764522432,2.53072615,31.83507479
"UG","Uganda","UG329","Otuke",0.134144016068409,2.47784945,33.38175131
"UG","Uganda","UG330","Zombo",0.0730110489285097,2.52182166,30.89564248
"UG","Uganda","UG331","Omoro",0.127387599335712,2.66948373,32.46499701
"UG","Uganda","UG332","Pakwach",0.0832918053870689,2.49570766,31.3706453
"UG","Uganda","UG401","Bundibugyo",0.0691994148446376,0.69835944,30.05559558
"UG","Uganda","UG402","Bushenyi",0.0654016011646705,-0.48778586,30.15882089
"UG","Uganda","UG404","Kabale",0.0501368819889677,-1.32772074,30.01817047
"UG","Uganda","UG405","Kabarole",0.10686142400555,0.63894281,30.33364223
"UG","Uganda","UG406","Kasese",0.275218515855334,0.1204434,30.00120615
"UG","Uganda","UG407","Kibaale",0.0943125516912966,0.80505361,31.06731156
"UG","Uganda","UG408","Kisoro",0.0596457137923648,-1.21530433,29.68035725
"UG","Uganda","UG409","Masindi",0.318793865980035,1.7460023,31.71220257
"UG","Uganda","UG410","Mbarara",0.145861253831543,-0.56809435,30.56955701
"UG","Uganda","UG411","Ntungamo",0.165934693263964,-0.93860549,30.27462358
"UG","Uganda","UG412","Rukungiri",0.123664879123174,-0.70234634,29.88837302
"UG","Uganda","UG413","Kamwenge",0.195637485867523,0.22827504,30.49315837
"UG","Uganda","UG414","Kanungu",0.108186572016858,-0.80766512,29.72552664
"UG","Uganda","UG415","Kyenjojo",0.190993923139776,0.65938781,30.6620798
"UG","Uganda","UG416","Buliisa",0.165729442416177,1.96451086,31.39183861
"UG","Uganda","UG417","Ibanda",0.0784387515221482,-0.07644975,30.48881812
"UG","Uganda","UG418","Isingiro",0.21519000806915,-0.85042908,30.87702053
"UG","Uganda","UG419","Kiruhura",0.373895395434481,-0.21469005,30.87267367
"UG","Uganda","UG420","Buhweju",0.0608216882226618,-0.32828016,30.33753479
"UG","Uganda","UG421","Kiryandongo",0.294567369350388,2.0257898,32.04089968
"UG","Uganda","UG422","Kyegegwa",0.141940667019177,0.45356644,31.00136012
"UG","Uganda","UG423","Mitooma",0.055257938825484,-0.57998846,30.01280338
"UG","Uganda","UG424","Ntoroko",0.113681170491004,1.0139158,30.36284741
"UG","Uganda","UG425","Rubirizi",0.11141417206222,-0.24992248,29.99086157
"UG","Uganda","UG426","Sheema",0.0568032181402861,-0.60095862,30.32596028
"UG","Uganda","UG427","Kagadi",0.126305750153636,1.01779286,30.81001212
"UG","Uganda","UG428","Kakumiro",0.135647113808913,0.98751294,31.2977318
"UG","Uganda","UG429","Rubanda",0.0557561903346447,-1.16859685,29.86615014
"UG","Uganda","UG430","Bunyangabu",0.0404482182692764,0.49763125,30.17198124
"UG","Uganda","UG431","Rukiga",0.0348089389433438,-1.14716752,30.09048485
"UG","Uganda","UG432","Hoima",0.458234213536565,1.43962648,31.07324834
"YE","Yemen","YE12","Abyan",1.37460846846769,13.70964703,46.16365585
"YE","Yemen","YE24","Aden",0.0624296768129704,12.82768224,44.78892754
"YE","Yemen","YE14","Al Bayda",0.777631845875855,14.31609966,45.34696286
"YE","Yemen","YE30","Al Dhale'e",0.334479335509287,13.89874622,44.7586266
"YE","Yemen","YE18","Al Hudaydah",1.1123311757476,14.83097574,43.16674859
"YE","Yemen","YE16","Al Jawf",3.34768185697688,16.62153972,45.5995283
"YE","Yemen","YE28","Al Maharah",5.63742770233328,16.7345021,51.59099503
"YE","Yemen","YE27","Al Mahwit",0.195982159940609,15.37430276,43.54228414
"YE","Yemen","YE13","Amanat Al Asimah",0.0328617222644999,15.46264905,44.23777533
"YE","Yemen","YE29","Amran",0.667737633636159,16.17315389,43.90773585
"YE","Yemen","YE20","Dhamar",0.636705076539576,14.59862078,44.20069589
"YE","Yemen","YE19","Hadramaut",13.7901578876299,16.66880453,49.15481412
"YE","Yemen","YE17","Hajjah",0.701529724957415,16.09158129,43.2621757
"YE","Yemen","YE11","Ibb",0.44747111874019,14.0758017,44.16673362
"YE","Yemen","YE25","Lahj",1.05527991226747,13.17948498,44.55222558
"YE","Yemen","YE26","Marib",1.47345033514426,15.49322152,45.51577794
"YE","Yemen","YE31","Raymah",0.158962658260751,14.66037211,43.67055663
"YE","Yemen","YE22","Sa'ada",1.04992195222273,17.09109741,43.90999927
"YE","Yemen","YE23","Sana'a",1.03548009732794,15.33486773,44.34128368
"YE","Yemen","YE21","Shabwah",3.27193546592703,14.77072435,46.8901752
"YE","Yemen","YE32","Socotra",0.316299177846376,12.49326098,53.7998403
"YE","Yemen","YE15","Taizz",0.835539869328324,13.41802776,43.77720536
